SCD 1                   
1 22490U 93009B   24191.61083674  .00000569  00000+0  10622-3 0  9993
2 22490  24.9688 254.3238 0042287 212.2521 302.3623 14.45323207659001
TECHSAT 1B (GO-32)      
1 25397U 98043D   24192.42351312  .00000138  00000+0  80006-4 0  9998
2 25397  98.9227 159.4948 0002418  90.5574 269.5881 14.24066763350949
SCD 2                   
1 25504U 98060A   24192.51147661  .00000568  00000+0  10913-3 0  9993
2 25504  24.9949 108.3433 0016865 217.9239 304.0393 14.44805767358347
LANDSAT 7               
1 25682U 99020A   24192.52983454  .00000656  00000+0  14345-3 0  9997
2 25682  97.8864 218.2159 0001184  92.0523  69.5443 14.60739471342608
DLR-TUBSAT              
1 25757U 99029B   24192.45777916  .00000213  00000+0  64645-4 0  9993
2 25757  98.5872 156.8939 0013958 345.3816  14.6973 14.51928064330774
TERRA                   
1 25994U 99068A   24192.47134532  .00000694  00000+0  15446-3 0  9999
2 25994  98.0471 255.2747 0000737 323.6185 152.0709 14.59853297306564
MAROC-TUBSAT            
1 27004U 01056D   24192.21263906 -.00000017  00000+0  33466-4 0  9996
2 27004  99.7363 346.9521 0020221 152.8539  21.8105 13.70208090129360
AQUA                    
1 27424U 02022A   24192.48833010  .00001302  00000+0  28461-3 0  9999
2 27424  98.3311 141.9481 0002120  67.4544  45.6501 14.59457507180118
IRS-P6 (RESOURCESAT-1)  
1 28051U 03046A   24192.52589687  .00000211  00000+0  86026-4 0  9996
2 28051  98.2925 248.9198 0063658 300.0283 164.6252 14.35498506 79140
SHIYAN 1 (SY-1)         
1 28220U 04012A   24192.09044449  .00008036  00000+0  46949-3 0  9994
2 28220  97.9632 220.8247 0007870 319.6781  40.3864 15.12166988103639
AURA                    
1 28376U 04026A   24191.87016172  .00001294  00000+0  28742-3 0  9998
2 28376  98.2514 136.5508 0001984  52.1467 307.9911 14.58689666 62986
IRS-P5 (CARTOSAT-1)     
1 28649U 05017A   24191.75396092  .00001921  00000+0  21957-3 0  9999
2 28649  97.6118 234.2622 0000701 142.8040 217.3225 14.87126083 38510
SINAH 1                 
1 28893U 05043D   24192.11061859  .00000587  00000+0  12426-3 0  9998
2 28893  98.1970 315.7735 0014174 335.8560  24.1975 14.62794250997344
EROS B                  
1 29079U 06014A   24192.49499297  .00015583  00000+0  82839-3 0  9993
2 29079  97.3349 305.9911 0009318 205.5581 154.5192 15.15328006 11076
RESURS-DK 1             
1 29228U 06021A   24191.91437964  .00002895  00000+0  19717-3 0  9993
2 29228  69.9360   3.4532 0005915 308.1495  51.9135 15.07462222995744
ARIRANG-2 (KOMPSAT-2)   
1 29268U 06031A   24192.56130659  .00000445  00000+0  94059-4 0  9993
2 29268  97.8623  39.7826 0015382 149.1472 237.2809 14.63614481958164
LAPAN-TUBSAT            
1 29709U 07001A   24192.47224092  .00000932  00000+0  11836-3 0  9998
2 29709  98.0697 167.9407 0011746 331.5408  28.5163 14.84077023946263
HAIYANG-1B              
1 31113U 07010A   24191.89680857  .00000164  00000+0  78543-4 0  9996
2 31113  98.2948 192.8898 0014535 134.9109 225.3257 14.30626653899481
COSMO-SKYMED 1          
1 31598U 07023A   24192.49452438  .00000867  00000+0  11545-3 0  9994
2 31598  97.8873  15.2962 0001555  83.5848 276.5542 14.82141726924649
TERRASAR-X              
1 31698U 07026A   24192.42518011  .00002150  00000+0  10555-3 0  9998
2 31698  97.4447 199.2463 0001843  81.5277 278.6166 15.19153578946587
WORLDVIEW-1 (WV-1)      
1 32060U 07041A   24191.85747550  .00009228  00000+0  38543-3 0  9997
2 32060  97.3791 310.8593 0002741 210.6033 149.5045 15.23849546935177
YAOGAN-3                
1 32289U 07055A   24192.52058051  .00002688  00000+0  31866-3 0  9995
2 32289  97.8858 217.6032 0001385 109.3523 250.7841 14.85360995900794
COSMO-SKYMED 2          
1 32376U 07059A   24192.52828271  .00000750  00000+0  10077-3 0  9994
2 32376  97.8871  15.3257 0001387  90.0926 270.0446 14.82160054897403
RADARSAT-2              
1 32382U 07061A   24192.47209573  .00000122  00000+0  64207-4 0  9994
2 32382  98.5771 198.5059 0001260  91.0173 269.1154 14.29983936865061
CARTOSAT-2A             
1 32783U 08021A   24192.45267056  .00001256  00000+0  17783-3 0  9999
2 32783  97.8647 250.3672 0011065 240.5309 119.4798 14.78742259874442
HUANJING 1A (HJ-1A)     
1 33320U 08041A   24192.48839477  .00001931  00000+0  26069-3 0  9991
2 33320  97.6306 198.3514 0018695 297.2995  62.6313 14.80075965853807
HUANJING 1B (HJ-1B)     
1 33321U 08041B   24192.48794574  .00001476  00000+0  19784-3 0  9990
2 33321  97.6259 202.8843 0037715 342.2903  17.6992 14.80349132853820
GEOEYE 1                
1 33331U 08042A   24192.47013110  .00000877  00000+0  17393-3 0  9999
2 33331  98.1299 264.5154 0008222  92.7514 267.4630 14.64629106846726
THEOS                   
1 33396U 08049A   24192.48515029  .00000107  00000+0  70660-4 0  9997
2 33396  98.6566 257.8591 0001098  98.8033 261.3268 14.20089544817687
COSMO-SKYMED 3          
1 33412U 08054A   24192.54093022  .00004253  00000+0  36581-3 0  9992
2 33412  97.8744  29.4633 0016860 134.8105 225.4490 14.97838420850784
YAOGAN-4                
1 33446U 08061A   24192.41840821  .00001526  00000+0  20865-3 0  9998
2 33446  97.8794 123.8588 0014317 204.8286 155.2239 14.79922770840992
GOSAT (IBUKI)           
1 33492U 09002A   24192.23162989  .00001005  00000+0  18557-3 0  9994
2 33492  98.0408 303.3078 0001459  99.2237 260.9133 14.67565332828236
YAOGAN-6                
1 34839U 09021A   24192.43744506  .00018621  00000+0  34124-3 0  9994
2 34839  97.1717 159.7700 0019600  94.9173 265.4317 15.49136070847057
DEIMOS-1                
1 35681U 09041A   24192.48978856  .00000798  00000+0  13037-3 0  9990
2 35681  97.6808  13.1633 0001009  23.6758 336.4497 14.73382963802744
DUBAISAT-1              
1 35682U 09041B   24192.39480783  .00001737  00000+0  28625-3 0  9991
2 35682  97.9099 327.9917 0011296 172.7386 187.3987 14.71689537801058
OCEANSAT-2              
1 35931U 09051A   24192.52283292 -.00000175  00000+0 -94388-4 0  9997
2 35931  98.2633 239.0434 0016836  72.6366 287.6640 13.99477104780488
WORLDVIEW-2 (WV-2)      
1 35946U 09055A   24192.45788265  .00000231  00000+0  92811-4 0  9999
2 35946  98.4604 264.8691 0004677 151.5540 208.5902 14.36825497774239
SMOS                    
1 36036U 09059A   24192.13493517  .00000455  00000+0  15906-3 0  9999
2 36036  98.4429  18.7445 0001420  91.7377 268.3974 14.39769427771855
YAOGAN-7                
1 36110U 09069A   24192.39096561  .00000718  00000+0  11065-3 0  9993
2 36110  98.1027  68.2944 0025996 151.1247 209.1407 14.76296745785313
TANDEM-X                
1 36605U 10030A   24192.35931080  .00001911  00000+0  94188-4 0  9996
2 36605  97.4460 199.1813 0001807  96.0532 264.0909 15.19152534779329
CARTOSAT-2B             
1 36795U 10035A   24192.48931559  .00001201  00000+0  17040-3 0  9999
2 36795  97.8588 250.0240 0011199 327.3605  32.6913 14.78742181755494
YAOGAN-10               
1 36834U 10038A   24192.55690049  .00001022  00000+0  13271-3 0  9993
2 36834  97.9474 209.5589 0001376  96.2129  56.2078 14.82903723752461
COSMO-SKYMED 4          
1 37216U 10060A   24192.27088408  .00000735  00000+0  98829-4 0  9995
2 37216  97.8873  15.0767 0001452  87.0674 273.0706 14.82173437739917
RESOURCESAT-2           
1 37387U 11015A   24192.45744730  .00000223  00000+0  12086-3 0  9994
2 37387  98.5761 257.5703 0005278  59.6388 300.5311 14.21695555686293
HAIYANG-2A              
1 37781U 11043A   24192.48915950  .00000007  00000+0  50575-4 0  9996
2 37781  99.3252 195.5977 0001409  60.0761 300.0530 13.78788141649542
RASAT                   
1 37791U 11044D   24192.53159284  .00000806  00000+0  15414-3 0  9993
2 37791  98.0790 283.6531 0019946 270.0966 216.4656 14.66407944689568
SRMSAT                  
1 37841U 11058D   24192.18878993  .00000466  00000+0  11007-3 0  9996
2 37841  19.9736  17.6602 0011835 347.7994 171.2924 14.11137679658031
YAOGAN-13               
1 37941U 11072A   24192.49682393  .00026519  00000+0  55706-3 0  9995
2 37941  97.7196 177.6780 0001436 114.5909 245.5488 15.45328475700078
PLEIADES 1A             
1 38012U 11076F   24192.47351505  .00000611  00000+0  14119-3 0  9993
2 38012  98.2034 266.6560 0001369 109.5309  20.4091 14.58580269668980
ZIYUAN 1-02C (ZY 1-02C) 
1 38038U 11079A   24192.48396740  .00000672  00000+0  24196-3 0  9998
2 38038  98.4969 260.5675 0005438 254.7226 221.2749 14.36883726657719
ZIYUAN 3-1 (ZY 3-1)     
1 38046U 12001A   24192.48800815  .00013958  00000+0  44440-3 0  9991
2 38046  97.2445 253.9456 0005986  72.3480 287.8415 15.32662009694503
ARIRANG-3 (KOMPSAT-3)   
1 38338U 12025B   24192.53353001  .00000844  00000+0  17448-3 0  9995
2 38338  98.2627 138.8340 0010517 159.2577 200.9053 14.62866030648157
KANOPUS-V 1             
1 38707U 12039A   24192.55033208  .00032310  00000+0  55655-3 0  9991
2 38707  97.4960 131.9789 0002372  93.3062 266.8461 15.51008512664835
EXACTVIEW-1 (ADS-1B)    
1 38709U 12039C   24192.49531960  .00000210  00000+0  11032-3 0  9999
2 38709  98.9519 284.7933 0011701  52.2853 307.9384 14.24481045622075
SPOT 6                  
1 38755U 12047A   24192.46422447  .00000605  00000+0  13998-3 0  9996
2 38755  98.2215 258.8632 0001282 108.9561 251.1778 14.58567394630062
PLEIADES 1B             
1 39019U 12068A   24192.48302739  .00000590  00000+0  13689-3 0  9996
2 39019  98.1956 266.6679 0001314 100.3400 259.7947 14.58517903617832
GOKTURK 2               
1 39030U 12073A   24192.51589079  .00000714  00000+0  11583-3 0  9992
2 39030  97.7505  52.3958 0002084  94.5003 265.6444 14.73973819620378
LANDSAT 8               
1 39084U 13008A   24192.48409517  .00000587  00000+0  14044-3 0  9997
2 39084  98.2282 261.8099 0001135 100.8849 259.2477 14.57103021606802
SARAL                   
1 39086U 13009A   24192.20098821  .00000163  00000+0  76436-4 0  9996
2 39086  98.5514  16.9963 0001528 178.5636 181.5552 14.32440984594370
GAOFEN-1                
1 39150U 13018A   24192.51022568  .00001257  00000+0  18747-3 0  9992
2 39150  97.9886 264.6276 0020505  27.3004 332.9279 14.76456565604002
